OBJECT_NAME,OBJECT_ID,EPOCH,MEAN_MOTION,ECCENTRICITY,INCLINATION,RA_OF_ASC_NODE,ARG_OF_PERICENTER,MEAN_ANOMALY,EPHEMERIS_TYPE,CLASSIFICATION_TYPE,NORAD_CAT_ID,ELEMENT_SET_NO,REV_AT_EPOCH,BSTAR,MEAN_MOTION_DOT,MEAN_MOTION_DDOT
DTC TEST OBJECT A,2026-128A,2026-06-14T03:33:53.609760,15.55702164,.00082233,54.9942,319.0654,277.3328,82.6773,0,U,69472,999,75,.38780495E-3,.26762E-3,0
DTC TEST OBJECT B,2026-128B,2026-06-14T03:32:44.616768,15.56120562,.00082771,55.0033,319.0631,278.2450,81.7648,0,U,69473,999,74,.41452358E-3,.291E-3,0
TJS-25,2026-129A,2026-06-11T11:34:53.014656,1.72502163,.7751889,16.5302,30.5351,199.9639,91.9387,0,U,69474,999,7,.19774E-2,.7407E-4,0
2026-132A,2026-132A,2026-06-14T06:50:10.215744,14.99041869,.00122303,97.6916,228.9985,282.1037,77.8815,0,U,69502,999,34,.56006861E-4,.621E-5,0
2026-132B,2026-132B,2026-06-14T05:13:51.547008,14.99132957,.00121731,97.6948,228.9337,284.5722,75.4150,0,U,69503,999,33,.31422263E-4,.323E-5,0
2026-132C,2026-132C,2026-06-14T06:48:38.486592,14.99755875,.0013698,97.6888,228.9971,295.8882,64.0929,0,U,69504,999,34,.12001142E-3,.1425E-4,0
2026-132D,2026-132D,2026-06-13T09:58:23.387808,15.00977591,.00110344,97.6871,228.1350,315.3023,44.7311,0,U,69505,999,20,.12291978E-3,.1509E-4,0
2026-132E,2026-132E,2026-06-13T22:59:45.049920,14.93464297,.00028233,97.6694,228.6931,327.8572,32.2476,0,U,69506,999,29,.19336817E-3,.1978E-4,0
2026-132F,2026-132F,2026-06-13T09:58:10.881408,15.01040982,.00109152,97.6869,228.1362,319.8335,40.2082,0,U,69507,999,20,.25250362E-3,.317E-4,0
